{"fetched_at":"2026-07-17T06:37:54.961Z","source":"https://celestrak.org/NORAD/elements/gp.php?GROUP=qianfan&FORMAT=JSON","constellation":"qianfan","records":[{"OBJECT_NAME":"QIANFAN-161","OBJECT_ID":"2026-108S","EPOCH":"2026-07-16T19:03:55.624320","CLASSIFICATION_TYPE":"U","MEAN_MOTION":13.75476836,"ECCENTRICITY":0.0019064,"INCLINATION":89.011,"RA_OF_ASC_NODE":19.0192,"ARG_OF_PERICENTER":23.8727,"MEAN_ANOMALY":336.3318,"EPHEMERIS_TYPE":0,"NORAD_CAT_ID":69120,"ELEMENT_SET_NO":999,"REV_AT_EPOCH":847,"BSTAR":-0.000082752,"MEAN_MOTION_DOT":-6.7e-7,"MEAN_MOTION_DDOT":0},{"OBJECT_NAME":"QIANFAN-162","OBJECT_ID":"2026-108T","EPOCH":"2026-07-16T17:18:28.728576","CLASSIFICATION_TYPE":"U","MEAN_MOTION":13.64834432,"ECCENTRICITY":0.0021029,"INCLINATION":89.01,"RA_OF_ASC_NODE":19.0428,"ARG_OF_PERICENTER":23.9896,"MEAN_ANOMALY":336.2238,"EPHEMERIS_TYPE":0,"NORAD_CAT_ID":69121,"ELEMENT_SET_NO":999,"REV_AT_EPOCH":844,"BSTAR":-2.4325,"MEAN_MOTION_DOT":-0.01829606,"MEAN_MOTION_DDOT":0},{"OBJECT_NAME":"QIANFAN-163","OBJECT_ID":"2026-121A","EPOCH":"2026-07-08T23:20:22.023168","CLASSIFICATION_TYPE":"U","MEAN_MOTION":13.53894414,"ECCENTRICITY":0.00204807,"INCLINATION":89.0049,"RA_OF_ASC_NODE":298.3591,"ARG_OF_PERICENTER":118.563,"MEAN_ANOMALY":241.7588,"EPHEMERIS_TYPE":0,"NORAD_CAT_ID":69325,"ELEMENT_SET_NO":999,"REV_AT_EPOCH":511,"BSTAR":-0.000006639878,"MEAN_MOTION_DOT":8e-8,"MEAN_MOTION_DDOT":0},{"OBJECT_NAME":"QIANFAN-164","OBJECT_ID":"2026-121B","EPOCH":"2026-07-13T16:07:09.757344","CLASSIFICATION_TYPE":"U","MEAN_MOTION":13.49695561,"ECCENTRICITY":0.00228451,"INCLINATION":89.0183,"RA_OF_ASC_NODE":297.8725,"ARG_OF_PERICENTER":112.6356,"MEAN_ANOMALY":247.7213,"EPHEMERIS_TYPE":0,"NORAD_CAT_ID":69326,"ELEMENT_SET_NO":999,"REV_AT_EPOCH":574,"BSTAR":0.000078131509,"MEAN_MOTION_DOT":6.2e-7,"MEAN_MOTION_DDOT":0},{"OBJECT_NAME":"QIANFAN-165","OBJECT_ID":"2026-124A","EPOCH":"2026-07-16T20:52:26.266080","CLASSIFICATION_TYPE":"U","MEAN_MOTION":13.90609047,"ECCENTRICITY":0.0006202,"INCLINATION":89,"RA_OF_ASC_NODE":358.7243,"ARG_OF_PERICENTER":56.5955,"MEAN_ANOMALY":303.5811,"EPHEMERIS_TYPE":0,"NORAD_CAT_ID":69382,"ELEMENT_SET_NO":999,"REV_AT_EPOCH":599,"BSTAR":-0.00001357,"MEAN_MOTION_DOT":-4e-8,"MEAN_MOTION_DDOT":0},{"OBJECT_NAME":"QIANFAN-166","OBJECT_ID":"2026-124B","EPOCH":"2026-07-16T14:46:50.033568","CLASSIFICATION_TYPE":"U","MEAN_MOTION":13.89848331,"ECCENTRICITY":0.0004827,"INCLINATION":89.0004,"RA_OF_ASC_NODE":358.7425,"ARG_OF_PERICENTER":20.5089,"MEAN_ANOMALY":339.6277,"EPHEMERIS_TYPE":0,"NORAD_CAT_ID":69383,"ELEMENT_SET_NO":999,"REV_AT_EPOCH":596,"BSTAR":-1.711,"MEAN_MOTION_DOT":-0.0196233,"MEAN_MOTION_DDOT":0},{"OBJECT_NAME":"QIANFAN-167","OBJECT_ID":"2026-124C","EPOCH":"2026-07-16T19:01:33.485952","CLASSIFICATION_TYPE":"U","MEAN_MOTION":13.853676,"ECCENTRICITY":0.0007216,"INCLINATION":88.9998,"RA_OF_ASC_NODE":358.7323,"ARG_OF_PERICENTER":83.9892,"MEAN_ANOMALY":276.21,"EPHEMERIS_TYPE":0,"NORAD_CAT_ID":69384,"ELEMENT_SET_NO":999,"REV_AT_EPOCH":598,"BSTAR":-1.7818,"MEAN_MOTION_DOT":-0.01897182,"MEAN_MOTION_DDOT":0},{"OBJECT_NAME":"QIANFAN-168","OBJECT_ID":"2026-124D","EPOCH":"2026-07-16T16:29:45.096864","CLASSIFICATION_TYPE":"U","MEAN_MOTION":13.8646459,"ECCENTRICITY":0.0006188,"INCLINATION":88.9998,"RA_OF_ASC_NODE":358.7349,"ARG_OF_PERICENTER":49.4318,"MEAN_ANOMALY":310.7391,"EPHEMERIS_TYPE":0,"NORAD_CAT_ID":69385,"ELEMENT_SET_NO":999,"REV_AT_EPOCH":597,"BSTAR":-1.916,"MEAN_MOTION_DOT":-0.02066215,"MEAN_MOTION_DDOT":0},{"OBJECT_NAME":"QIANFAN-169","OBJECT_ID":"2026-124E","EPOCH":"2026-07-16T19:33:10.227744","CLASSIFICATION_TYPE":"U","MEAN_MOTION":13.90187108,"ECCENTRICITY":0.0008992,"INCLINATION":89.0002,"RA_OF_ASC_NODE":358.7157,"ARG_OF_PERICENTER":67.3838,"MEAN_ANOMALY":292.8286,"EPHEMERIS_TYPE":0,"NORAD_CAT_ID":69386,"ELEMENT_SET_NO":999,"REV_AT_EPOCH":599,"BSTAR":0.0000088101,"MEAN_MOTION_DOT":2.4e-7,"MEAN_MOTION_DDOT":0},{"OBJECT_NAME":"QIANFAN-170","OBJECT_ID":"2026-124F","EPOCH":"2026-07-16T20:36:13.294080","CLASSIFICATION_TYPE":"U","MEAN_MOTION":13.94176982,"ECCENTRICITY":0.0007138,"INCLINATION":88.9999,"RA_OF_ASC_NODE":358.7035,"ARG_OF_PERICENTER":49.4904,"MEAN_ANOMALY":310.6893,"EPHEMERIS_TYPE":0,"NORAD_CAT_ID":69387,"ELEMENT_SET_NO":999,"REV_AT_EPOCH":600,"BSTAR":-9.0191e-7,"MEAN_MOTION_DOT":1.2e-7,"MEAN_MOTION_DDOT":0},{"OBJECT_NAME":"QIANFAN-171","OBJECT_ID":"2026-124G","EPOCH":"2026-07-16T20:14:07.971648","CLASSIFICATION_TYPE":"U","MEAN_MOTION":13.94199796,"ECCENTRICITY":0.0006071,"INCLINATION":89.0006,"RA_OF_ASC_NODE":358.702,"ARG_OF_PERICENTER":76.9958,"MEAN_ANOMALY":283.1895,"EPHEMERIS_TYPE":0,"NORAD_CAT_ID":69388,"ELEMENT_SET_NO":999,"REV_AT_EPOCH":600,"BSTAR":0.000011065,"MEAN_MOTION_DOT":2.8e-7,"MEAN_MOTION_DDOT":0},{"OBJECT_NAME":"QIANFAN-172","OBJECT_ID":"2026-124H","EPOCH":"2026-07-16T20:15:33.043680","CLASSIFICATION_TYPE":"U","MEAN_MOTION":13.94966068,"ECCENTRICITY":0.0006171,"INCLINATION":89.0002,"RA_OF_ASC_NODE":358.7027,"ARG_OF_PERICENTER":64.744,"MEAN_ANOMALY":295.4375,"EPHEMERIS_TYPE":0,"NORAD_CAT_ID":69389,"ELEMENT_SET_NO":999,"REV_AT_EPOCH":600,"BSTAR":0.000012806,"MEAN_MOTION_DOT":3.1e-7,"MEAN_MOTION_DDOT":0},{"OBJECT_NAME":"QIANFAN-173","OBJECT_ID":"2026-124J","EPOCH":"2026-07-16T19:51:27.399744","CLASSIFICATION_TYPE":"U","MEAN_MOTION":13.95275701,"ECCENTRICITY":0.000709,"INCLINATION":89.0003,"RA_OF_ASC_NODE":358.6997,"ARG_OF_PERICENTER":58.8011,"MEAN_ANOMALY":301.3859,"EPHEMERIS_TYPE":0,"NORAD_CAT_ID":69390,"ELEMENT_SET_NO":999,"REV_AT_EPOCH":600,"BSTAR":-0.0000071749,"MEAN_MOTION_DOT":4e-8,"MEAN_MOTION_DDOT":0},{"OBJECT_NAME":"QIANFAN-174","OBJECT_ID":"2026-124K","EPOCH":"2026-07-16T19:13:05.411712","CLASSIFICATION_TYPE":"U","MEAN_MOTION":13.97969704,"ECCENTRICITY":0.0007117,"INCLINATION":89.0001,"RA_OF_ASC_NODE":358.6954,"ARG_OF_PERICENTER":60.0981,"MEAN_ANOMALY":300.0903,"EPHEMERIS_TYPE":0,"NORAD_CAT_ID":69391,"ELEMENT_SET_NO":999,"REV_AT_EPOCH":599,"BSTAR":-0.0000032561,"MEAN_MOTION_DOT":9e-8,"MEAN_MOTION_DDOT":0},{"OBJECT_NAME":"QIANFAN-175","OBJECT_ID":"2026-124L","EPOCH":"2026-07-16T19:22:13.158336","CLASSIFICATION_TYPE":"U","MEAN_MOTION":13.96239355,"ECCENTRICITY":0.0007561,"INCLINATION":89.0008,"RA_OF_ASC_NODE":358.696,"ARG_OF_PERICENTER":67.3356,"MEAN_ANOMALY":292.8619,"EPHEMERIS_TYPE":0,"NORAD_CAT_ID":69392,"ELEMENT_SET_NO":999,"REV_AT_EPOCH":600,"BSTAR":-0.000065734,"MEAN_MOTION_DOT":-7.7e-7,"MEAN_MOTION_DDOT":0},{"OBJECT_NAME":"QIANFAN-176","OBJECT_ID":"2026-124M","EPOCH":"2026-07-16T19:20:31.679808","CLASSIFICATION_TYPE":"U","MEAN_MOTION":13.93660355,"ECCENTRICITY":0.0007997,"INCLINATION":89.0002,"RA_OF_ASC_NODE":358.6951,"ARG_OF_PERICENTER":63.451,"MEAN_ANOMALY":296.7484,"EPHEMERIS_TYPE":0,"NORAD_CAT_ID":69393,"ELEMENT_SET_NO":999,"REV_AT_EPOCH":599,"BSTAR":0.00001478,"MEAN_MOTION_DOT":3.3e-7,"MEAN_MOTION_DDOT":0}]}
