QIANFAN-161             
1 69120U 26108S   26197.79439380 -.00000067  00000+0 -82752-4 0  9995
2 69120  89.0110  19.0192 0019064  23.8727 336.3318 13.75476836  8476
QIANFAN-162             
1 69121U 26108T   26197.72116584 -.01829606  00000+0 -24325+1 0  9994
2 69121  89.0100  19.0428 0021029  23.9896 336.2238 13.64834432  8445
QIANFAN-163             
1 69325U 26121A   26189.97247712  .00000008  00000+0 -66399-5 0  9998
2 69325  89.0049 298.3591 0020480 118.5630 241.7588 13.53894414  5116
QIANFAN-164             
1 69326U 26121B   26194.67164071  .00000062  00000+0  78132-4 0  9994
2 69326  89.0183 297.8725 0022845 112.6356 247.7213 13.49695561  5743
QIANFAN-165             
1 69382U 26124A   26197.86974845 -.00000004  00000+0 -13570-4 0  9994
2 69382  89.0000 358.7243 0006202  56.5955 303.5811 13.90609047  5997
QIANFAN-166             
1 69383U 26124B   26197.61585687 -.01962330  00000+0 -17110+1 0  9990
2 69383  89.0004 358.7425 0004827  20.5089 339.6277 13.89848331  5966
QIANFAN-167             
1 69384U 26124C   26197.79274868 -.01897182  00000+0 -17818+1 0  9993
2 69384  88.9998 358.7323 0007216  83.9892 276.2100 13.85367600  5988
QIANFAN-168             
1 69385U 26124D   26197.68732751 -.02066215  00000+0 -19160+1 0  9990
2 69385  88.9998 358.7349 0006188  49.4318 310.7391 13.86464590  5976
QIANFAN-169             
1 69386U 26124E   26197.81470171  .00000024  00000+0  88101-5 0  9999
2 69386  89.0002 358.7157 0008992  67.3838 292.8286 13.90187108  5990
QIANFAN-170             
1 69387U 26124F   26197.85848720  .00000012  00000+0 -90191-6 0  9994
2 69387  88.9999 358.7035 0007138  49.4904 310.6893 13.94176982  6003
QIANFAN-171             
1 69388U 26124G   26197.84314782  .00000028  00000+0  11065-4 0  9997
2 69388  89.0006 358.7020 0006071  76.9958 283.1895 13.94199796  6002
QIANFAN-172             
1 69389U 26124H   26197.84413245  .00000031  00000+0  12806-4 0  9990
2 69389  89.0002 358.7027 0006171  64.7440 295.4375 13.94966068  6001
QIANFAN-173             
1 69390U 26124J   26197.82740046  .00000004  00000+0 -71749-5 0  9995
2 69390  89.0003 358.6997 0007090  58.8011 301.3859 13.95275701  6000
QIANFAN-174             
1 69391U 26124K   26197.80075708  .00000009  00000+0 -32561-5 0  9994
2 69391  89.0001 358.6954 0007117  60.0981 300.0903 13.97969704  5991
QIANFAN-175             
1 69392U 26124L   26197.80709674 -.00000077  00000+0 -65734-4 0  9994
2 69392  89.0008 358.6960 0007561  67.3356 292.8619 13.96239355  6001
QIANFAN-176             
1 69393U 26124M   26197.80592222  .00000033  00000+0  14780-4 0  9999
2 69393  89.0002 358.6951 0007997  63.4510 296.7484 13.93660355  5993
